OBJECT_NAME,OBJECT_ID,EPOCH,MEAN_MOTION,ECCENTRICITY,INCLINATION,RA_OF_ASC_NODE,ARG_OF_PERICENTER,MEAN_ANOMALY,EPHEMERIS_TYPE,CLASSIFICATION_TYPE,NORAD_CAT_ID,ELEMENT_SET_NO,REV_AT_EPOCH,BSTAR,MEAN_MOTION_DOT,MEAN_MOTION_DDOT
STARLINK-11492 [DTC],2024-231G,2025-07-21T03:48:21.844224,15.69727868,.0001131,53.1572,162.8827,83.7824,276.3323,0,U,62224,999,3701,.1139E-2,.139852E-2,0
STARLINK-11471 [DTC],2024-231H,2025-07-21T04:23:32.178048,15.69739604,.0000907,53.1568,162.3084,95.7352,264.3769,0,U,62225,999,3674,.18988E-2,.236414E-2,0
STARLINK-11475 [DTC],2024-231J,2025-07-21T04:30:35.831808,15.69751330,.0001099,53.1571,162.3276,87.1287,272.9856,0,U,62226,999,3700,.1663E-2,.206323E-2,0
STARLINK-11469 [DTC],2024-231K,2025-07-21T04:44:44.614176,15.69781219,.0001868,53.1569,162.3927,43.7241,316.3925,0,U,62227,999,3700,.15197E-2,.188317E-2,0
STARLINK-11476 [DTC],2024-231L,2025-07-21T02:37:43.377312,15.69738479,.000104,53.1565,162.5439,50.9115,309.1995,0,U,62228,999,3700,.13997E-2,.172763E-2,0
STARLINK-11485 [DTC],2024-231M,2025-07-21T04:37:39.898560,15.69722793,.0001336,53.1562,162.3591,60.4863,299.6288,0,U,62229,999,3679,.15255E-2,.188583E-2,0
STARLINK-11481 [DTC],2024-231N,2025-07-21T04:02:29.279616,15.69745335,.0001214,53.1567,162.9320,91.6809,268.4348,0,U,62230,999,3698,.15098E-2,.18677E-2,0
STARLINK-32650,2024-231P,2025-07-21T04:47:48.512256,15.30193535,.000122,53.1569,215.0638,93.9140,266.2000,0,U,62231,999,3629,.4123E-3,.11869E-3,0
STARLINK-32636,2024-231Q,2025-07-21T10:06:17.068032,15.30162912,.0001197,53.1581,213.6049,81.6112,278.5024,0,U,62232,999,3630,.82867E-3,.24236E-3,0
STARLINK-32643,2024-231R,2025-07-21T09:44:14.648640,15.39632918,.0001032,53.1569,207.1168,84.4599,275.6523,0,U,62233,999,3642,.57594E-3,.22716E-3,0
STARLINK-32652,2024-231S,2025-07-21T07:31:35.736384,15.30209550,.0000932,53.1565,214.3507,58.5731,301.5361,0,U,62234,999,3631,.69587E-3,.20313E-3,0
STARLINK-32631,2024-231T,2025-07-21T06:50:11.218848,15.39623995,.0001318,53.1569,207.7831,87.4154,272.7002,0,U,62235,999,3639,.36542E-3,.14246E-3,0
STARLINK-32641,2024-231U,2025-07-21T10:43:48.500832,15.39635377,.0001053,53.1561,206.6626,88.8665,271.2460,0,U,62236,999,3642,.59695E-3,.23564E-3,0
STARLINK-32632,2024-231V,2025-07-20T17:38:47.613984,15.30197174,.000105,53.1561,217.1385,81.9917,278.1203,0,U,62262,999,3625,.41903E-3,.1207E-3,0
STARLINK-11496 [DTC],2024-237A,2025-07-21T11:17:37.908960,15.70956735,.0004258,42.9982,10.6729,291.1044,68.9368,0,U,62267,999,3668,.14458E-2,.190364E-2,0
STARLINK-11501 [DTC],2024-237B,2025-07-21T04:25:31.245024,15.70964504,.000205,43.0011,11.9486,287.1693,72.8950,0,U,62268,999,3659,.17415E-2,.230523E-2,0
STARLINK-11491 [DTC],2024-237C,2025-07-21T04:17:52.293408,15.70934950,.0002454,43.0010,11.9047,278.5857,81.4733,0,U,62269,999,3663,.12352E-2,.16182E-2,0
STARLINK-11479 [DTC],2024-237D,2025-07-21T04:40:48.398304,15.70918742,.0003031,43.0002,12.0330,277.4390,82.6133,0,U,62270,999,3663,.15596E-2,.205389E-2,0
STARLINK-11489 [DTC],2024-237E,2025-07-21T04:02:45.856320,15.70902645,.0002542,42.9967,12.7154,276.7333,83.3246,0,U,62271,999,3662,.15089E-2,.198387E-2,0
STARLINK-11494 [DTC],2024-237F,2025-07-21T11:09:59.218272,15.70982194,.0006912,42.9989,10.6284,290.6339,69.3787,0,U,62272,999,3663,.16909E-2,.22401E-2,0
STARLINK-11333 [DTC],2024-237G,2025-07-21T11:25:16.431168,15.70996398,.0006948,42.9999,10.7130,289.9831,70.0288,0,U,62273,999,3668,.17595E-2,.233524E-2,0
STARLINK-11504 [DTC],2024-237H,2025-07-21T11:02:20.385888,15.70962606,.0005871,42.9980,10.5836,287.9949,72.0279,0,U,62274,999,3663,.15125E-2,.199511E-2,0
STARLINK-11495 [DTC],2024-237J,2025-07-21T04:10:24.893472,15.70984222,.0002443,42.9991,12.7562,293.2670,66.7940,0,U,62275,999,3657,.19539E-2,.259836E-2,0
STARLINK-11498 [DTC],2024-237K,2025-07-21T10:39:24.193728,15.70870586,.0001507,42.9990,10.4543,268.6521,91.4174,0,U,62276,999,3667,.12248E-2,.159976E-2,0
STARLINK-11484 [DTC],2024-237L,2025-07-21T10:54:41.641632,15.70977025,.000619,42.9994,10.5399,288.8220,71.1976,0,U,62277,999,3667,.1638E-2,.2167E-2,0
STARLINK-11487 [DTC],2024-237M,2025-07-21T11:32:55.386240,15.70963519,.0007109,43.0001,10.7543,291.6394,68.3716,0,U,62278,999,3668,.14928E-2,.196931E-2,0
STARLINK-11499 [DTC],2024-237N,2025-07-21T04:11:43.674720,15.70985685,.0002011,42.9992,12.7626,294.1453,65.9204,0,U,62279,999,3658,.1976E-2,.262889E-2,0
STARLINK-33548,2024-237P,2025-07-21T00:00:57.069792,15.27582273,.0000635,43.0026,73.9583,273.2152,86.8627,0,U,62280,999,3588,.25419E-3,.674E-4,0
STARLINK-33544,2024-237Q,2025-07-21T09:09:12.243744,15.27588624,.000045,42.9974,82.9047,261.2398,98.8402,0,U,62281,999,3581,.28112E-3,.7484E-4,0
STARLINK-33560,2024-237R,2025-07-21T08:43:18.171264,15.27589352,.0001309,42.9987,82.7628,275.7022,84.3680,0,U,62282,999,3569,.53148E-3,.14396E-3,0
