STARLINK-11492 [DTC]    
1 62224U 24231G   25202.15858616  .00139852  00000+0  11390-2 0  9992
2 62224  53.1572 162.8827 0001131  83.7824 276.3323 15.69727868 37019
STARLINK-11471 [DTC]    
1 62225U 24231H   25202.18301132  .00236414  00000+0  18988-2 0  9994
2 62225  53.1568 162.3084 0000907  95.7352 264.3769 15.69739604 36745
STARLINK-11475 [DTC]    
1 62226U 24231J   25202.18791472  .00206323  00000+0  16630-2 0  9993
2 62226  53.1571 162.3276 0001099  87.1287 272.9856 15.69751330 37000
STARLINK-11469 [DTC]    
1 62227U 24231K   25202.19773859  .00188317  00000+0  15197-2 0  9993
2 62227  53.1569 162.3927 0001868  43.7241 316.3925 15.69781219 37002
STARLINK-11476 [DTC]    
1 62228U 24231L   25202.10952983  .00172763  00000+0  13997-2 0  9996
2 62228  53.1565 162.5439 0001040  50.9115 309.1995 15.69738479 37008
STARLINK-11485 [DTC]    
1 62229U 24231M   25202.19282290  .00188583  00000+0  15255-2 0  9999
2 62229  53.1562 162.3591 0001336  60.4863 299.6288 15.69722793 36792
STARLINK-11481 [DTC]    
1 62230U 24231N   25202.16839444  .00186770  00000+0  15098-2 0  9998
2 62230  53.1567 162.9320 0001214  91.6809 268.4348 15.69745335 36985
STARLINK-32650          
1 62231U 24231P   25202.19986704  .00011869  00000+0  41230-3 0  9998
2 62231  53.1569 215.0638 0001220  93.9140 266.2000 15.30193535 36292
STARLINK-32636          
1 62232U 24231Q   25202.42103088  .00024236  00000+0  82867-3 0  9994
2 62232  53.1581 213.6049 0001197  81.6112 278.5024 15.30162912 36302
STARLINK-32643          
1 62233U 24231R   25202.40572510  .00022716  00000+0  57594-3 0  9993
2 62233  53.1569 207.1168 0001032  84.4599 275.6523 15.39632918 36429
STARLINK-32652          
1 62234U 24231S   25202.31360806  .00020313  00000+0  69587-3 0  9993
2 62234  53.1565 214.3507 0000932  58.5731 301.5361 15.30209550 36311
STARLINK-32631          
1 62235U 24231T   25202.28485207  .00014246  00000+0  36542-3 0  9996
2 62235  53.1569 207.7831 0001318  87.4154 272.7002 15.39623995 36392
STARLINK-32641          
1 62236U 24231U   25202.44708913  .00023564  00000+0  59695-3 0  9994
2 62236  53.1561 206.6626 0001053  88.8665 271.2460 15.39635377 36426
STARLINK-32632          
1 62262U 24231V   25201.73527331  .00012070  00000+0  41903-3 0  9990
2 62262  53.1561 217.1385 0001050  81.9917 278.1203 15.30197174 36256
STARLINK-11496 [DTC]    
1 62267U 24237A   25202.47057765  .00190364  00000+0  14458-2 0  9999
2 62267  42.9982  10.6729 0004258 291.1044  68.9368 15.70956735 36685
STARLINK-11501 [DTC]    
1 62268U 24237B   25202.18438941  .00230523  00000+0  17415-2 0  9995
2 62268  43.0011  11.9486 0002050 287.1693  72.8950 15.70964504 36592
STARLINK-11491 [DTC]    
1 62269U 24237C   25202.17907747  .00161820  00000+0  12352-2 0  9998
2 62269  43.0010  11.9047 0002454 278.5857  81.4733 15.70934950 36631
STARLINK-11479 [DTC]    
1 62270U 24237D   25202.19500461  .00205389  00000+0  15596-2 0  9996
2 62270  43.0002  12.0330 0003031 277.4390  82.6133 15.70918742 36631
STARLINK-11489 [DTC]    
1 62271U 24237E   25202.16858630  .00198387  00000+0  15089-2 0  9994
2 62271  42.9967  12.7154 0002542 276.7333  83.3246 15.70902645 36623
STARLINK-11494 [DTC]    
1 62272U 24237F   25202.46526873  .00224010  00000+0  16909-2 0  9994
2 62272  42.9989  10.6284 0006912 290.6339  69.3787 15.70982194 36637
STARLINK-11333 [DTC]    
1 62273U 24237G   25202.47588462  .00233524  00000+0  17595-2 0  9990
2 62273  42.9999  10.7130 0006948 289.9831  70.0288 15.70996398 36688
STARLINK-11504 [DTC]    
1 62274U 24237H   25202.45995817  .00199511  00000+0  15125-2 0  9999
2 62274  42.9980  10.5836 0005871 287.9949  72.0279 15.70962606 36634
STARLINK-11495 [DTC]    
1 62275U 24237J   25202.17389923  .00259836  00000+0  19539-2 0  9994
2 62275  42.9991  12.7562 0002443 293.2670  66.7940 15.70984222 36576
STARLINK-11498 [DTC]    
1 62276U 24237K   25202.44403002  .00159976  00000+0  12248-2 0  9994
2 62276  42.9990  10.4543 0001507 268.6521  91.4174 15.70870586 36673
STARLINK-11484 [DTC]    
1 62277U 24237L   25202.45464863  .00216700  00000+0  16380-2 0  9998
2 62277  42.9994  10.5399 0006190 288.8220  71.1976 15.70977025 36672
STARLINK-11487 [DTC]    
1 62278U 24237M   25202.48119660  .00196931  00000+0  14928-2 0  9993
2 62278  43.0001  10.7543 0007109 291.6394  68.3716 15.70963519 36686
STARLINK-11499 [DTC]    
1 62279U 24237N   25202.17481105  .00262889  00000+0  19760-2 0  9991
2 62279  42.9992  12.7626 0002011 294.1453  65.9204 15.70985685 36581
STARLINK-33548          
1 62280U 24237P   25202.00066053  .00006740  00000+0  25419-3 0  9997
2 62280  43.0026  73.9583 0000635 273.2152  86.8627 15.27582273 35889
STARLINK-33544          
1 62281U 24237Q   25202.38139171  .00007484  00000+0  28112-3 0  9990
2 62281  42.9974  82.9047 0000450 261.2398  98.8402 15.27588624 35812
STARLINK-33560          
1 62282U 24237R   25202.36340476  .00014396  00000+0  53148-3 0  9998
2 62282  42.9987  82.7628 0001309 275.7022  84.3680 15.27589352 35691
